{
    "links": {
        "self": "http://www.neowsapp.com/rest/v1/neo/3626395?api_key=iIulBulltgU6a56xZRHN4H3l9WmuAYTsLGpBGhQ2"
    },
    "id": "3626395",
    "neo_reference_id": "3626395",
    "name": "(2013 CE82)",
    "designation": "2013 CE82",
    "nasa_jpl_url": "http://ssd.jpl.nasa.gov/sbdb.cgi?sstr=3626395",
    "absolute_magnitude_h": 24.6,
    "estimated_diameter": {
        "kilometers": {
            "estimated_diameter_min": 0.0319561887,
            "estimated_diameter_max": 0.0714562102
        },
        "meters": {
            "estimated_diameter_min": 31.9561886721,
            "estimated_diameter_max": 71.4562101727
        },
        "miles": {
            "estimated_diameter_min": 0.0198566489,
            "estimated_diameter_max": 0.0444008168
        },
        "feet": {
            "estimated_diameter_min": 104.8431420431,
            "estimated_diameter_max": 234.436392583
        }
    },
    "is_potentially_hazardous_asteroid": false,
    "close_approach_data": [
        {
            "close_approach_date": "1926-01-25",
            "close_approach_date_full": "1926-Jan-25 13:07",
            "epoch_date_close_approach": -1386413580000,
            "relative_velocity": {
                "kilometers_per_second": "23.2043827189",
                "kilometers_per_hour": "83535.7777878719",
                "miles_per_hour": "51905.8837038029"
            },
            "miss_distance": {
                "astronomical": "0.3303041824",
                "lunar": "128.4883269536",
                "kilometers": "49412802.139131488",
                "miles": "30703691.5001630144"
            },
            "orbiting_body": "Earth"
        },
        {
            "close_approach_date": "2013-02-17",
            "close_approach_date_full": "2013-Feb-17 16:40",
            "epoch_date_close_approach": 1361119200000,
            "relative_velocity": {
                "kilometers_per_second": "13.1765267511",
                "kilometers_per_hour": "47435.496304028",
                "miles_per_hour": "29474.5726895779"
            },
            "miss_distance": {
                "astronomical": "0.0118322712",
                "lunar": "4.6027534968",
                "kilometers": "1770082.568782344",
                "miles": "1099878.3062065872"
            },
            "orbiting_body": "Earth"
        }
    ],
    "orbital_data": {
        "orbit_id": "10",
        "orbit_determination_date": "2017-04-06 08:46:52",
        "first_observation_date": "2013-02-05",
        "last_observation_date": "2013-02-16",
        "data_arc_in_days": 11,
        "observations_used": 38,
        "orbit_uncertainty": "7",
        "minimum_orbit_intersection": ".011419",
        "jupiter_tisserand_invariant": "3.619",
        "epoch_osculation": "2459000.5",
        "eccentricity": ".5754764946792565",
        "semi_major_axis": "1.993917067939446",
        "inclination": "4.383674664087573",
        "ascending_node_longitude": "320.1022969857804",
        "orbital_period": "1028.392884994943",
        "perihelion_distance": ".8464646630005128",
        "perihelion_argument": "241.529793184761",
        "aphelion_distance": "3.14136947287838",
        "perihelion_time": "2459463.307514762117",
        "mean_anomaly": "197.989247353475",
        "mean_motion": ".3500607649592696",
        "equinox": "J2000",
        "orbit_class": {
            "orbit_class_type": "APO",
            "orbit_class_description": "Near-Earth asteroid orbits which cross the Earth’s orbit similar to that of 1862 Apollo",
            "orbit_class_range": "a (semi-major axis) > 1.0 AU; q (perihelion) < 1.017 AU"
        }
    },
    "is_sentry_object": false
}